"{\n    \"CCSDS_OMM_VERS\": \"2.0\",\n    \"COMMENT\": \"GENERATED VIA SPACE-TRACK.ORG API\",\n    \"CREATION_DATE\": \"2025-08-29T02:15:49\",\n    \"ORIGINATOR\": \"18 SPCS\",\n    \"OBJECT_NAME\": \"GALILEO-PFM\",\n    \"OBJECT_ID\": \"2011-060A\",\n    \"CENTER_NAME\": \"EARTH\",\n    \"REF_FRAME\": \"TEME\",\n    \"TIME_SYSTEM\": \"UTC\",\n    \"MEAN_ELEMENT_THEORY\": \"SGP4\",\n    \"EPOCH\": \"2025-08-28T03:25:07.794048\",\n    \"MEAN_MOTION\": \"1.7047593443\",\n    \"ECCENTRICITY\": \"0.000083001042\",\n    \"INCLINATION\": \"57.079422\",\n    \"RA_OF_ASC_NODE\": \"349.71231\",\n    \"ARG_OF_PERICENTER\": \"65.743705\",\n    \"MEAN_ANOMALY\": \"294.28525\",\n    \"EPHEMERIS_TYPE\": \"0\",\n    \"CLASSIFICATION_TYPE\": \"U\",\n    \"NORAD_CAT_ID\": \"37846\",\n    \"ELEMENT_SET_NO\": \"999\",\n    \"REV_AT_EPOCH\": \"8612\",\n    \"BSTAR\": \"0\",\n    \"MEAN_MOTION_DOT\": \"-0.000001038062\",\n    \"MEAN_MOTION_DDOT\": \"0\",\n    \"TLE_LINE0\": \"0 GALILEO-PFM\",\n    \"TLE_LINE1\": \"1 37846U 11060A   25240.14245132 -.00000104  00000-0  00000-0 0  9997\",\n    \"TLE_LINE2\": \"2 37846  57.0794 349.7123 0000830  65.7437 294.2853  1.70475934 86124\",\n    \"SEMIMAJOR_AXIS\": \"29600.096\",\n    \"PERIOD\": \"844.694\",\n    \"APOAPSIS\": \"23224.418\",\n    \"PERIAPSIS\": \"23219.504\",\n    \"OBJECT_TYPE\": \"PAYLOAD\",\n    \"DECAYED\": \"0\"\n}"